ONEWEB-0228             
1 48780U 21045P   24045.56146423 -.00000036  00000+0 -12960-3 0  9996
2 48780  87.8941  69.0854 0002013  91.5063 268.6298 13.15547916132096
